NORAD_CAT_ID,OBJECT_NAME,OBJECT_TYPE,EPOCH,MEAN_MOTION,ECCENTRICITY,INCLINATION,RA_OF_ASC_NODE,ARG_OF_PERICENTER,MEAN_ANOMALY,BSTAR,MEAN_MOTION_DOT,MEAN_MOTION_DDOT,TLE_LINE0,TLE_LINE1,TLE_LINE2,SEMIMAJOR_AXIS,PERIOD,APOGEE,PERIGEE,DECAYED
49425.0,STARLINK-3139,PAYLOAD,2023-12-11 03:41:39,15.0883942,0.0001613,53.2182,308.1691,89.6918,270.4259,5.2973e-05,5.55e-06,0.0,0 STARLINK-3139,1 49425U 21104T   23345.15392475  .00000555  00000-0  52973-4 0  9990,2 49425  53.2182 308.1691 0001613  89.6918 270.4259 15.08839420115991,6917.882,95.438,540.863,538.631,0.0
49425.0,STARLINK-3139,PAYLOAD,2023-12-11 05:17:02,15.08840688,0.0001584,53.2182,307.872,84.5037,275.6136,6.2826e-05,7.12e-06,0.0,0 STARLINK-3139,1 49425U 21104T   23345.22016431  .00000712  00000-0  62826-4 0  9996,2 49425  53.2182 307.8720 0001584  84.5037 275.6136 15.08840688114924,6917.878,95.438,540.839,538.647,0.0
49425.0,STARLINK-3139,PAYLOAD,2023-12-12 03:32:26,15.08837903,0.0001631,53.2179,303.7098,82.7625,277.3552,6.139e-05,6.89e-06,0.0,0 STARLINK-3139,1 49425U 21104T   23346.14752696  .00000689  00000-0  61390-4 0  9996,2 49425  53.2179 303.7098 0001631  82.7625 277.3552 15.08837903115062,6917.887,95.438,540.88,538.623,0.0
49425.0,STARLINK-3139,PAYLOAD,2023-12-13 03:23:12,15.08846662,0.0001783,53.2182,299.2482,74.8717,285.2472,0.00010742,1.422e-05,0.0,0 STARLINK-3139,1 49425U 21104T   23347.14112091  .00001422  00000-0  10742-3 0  9996,2 49425  53.2182 299.2482 0001783  74.8717 285.2472 15.08846662116291,6917.86,95.437,540.958,538.492,0.0
49425.0,STARLINK-3139,PAYLOAD,2023-12-14 03:13:59,15.08845182,0.0001646,53.218,294.7856,93.0654,267.0526,5.7077e-05,6.21e-06,0.0,0 STARLINK-3139,1 49425U 21104T   23348.13471926  .00000621  00000-0  57077-4 0  9994,2 49425  53.2180 294.7856 0001646  93.0654 267.0526 15.08845182115366,6917.865,95.437,540.868,538.591,0.0
49425.0,STARLINK-3139,PAYLOAD,2023-12-15 01:29:23,15.08840252,0.0001741,53.2183,290.6225,96.3795,263.7396,-2.6866e-06,-3.31e-06,0.0,0 STARLINK-3139,1 49425U 21104T   23349.06208295 -.00000331  00000-0 -26866-5 0  9997,2 49425  53.2183 290.6225 0001741  96.3795 263.7396 15.08840252116588,6917.88,95.438,540.949,538.54,0.0
49425.0,STARLINK-3139,PAYLOAD,2023-12-16 01:20:11,15.08835674,0.0001542,53.2173,286.1619,97.8314,262.2853,1.7517e-05,-9e-08,0.0,0 STARLINK-3139,1 49425U 21104T   23350.05568749 -.00000009  00000-0  17517-4 0  9994,2 49425  53.2173 286.1619 0001542  97.8314 262.2853 15.08835674116737,6917.894,95.438,540.825,538.692,0.0
49425.0,STARLINK-3139,PAYLOAD,2023-12-17 02:46:21,15.08838322,0.0001521,53.2168,281.407,107.6483,252.4675,2.9993e-06,-2.4e-06,0.0,0 STARLINK-3139,1 49425U 21104T   23351.11553214 -.00000240  00000-0  29993-5 0  9992,2 49425  53.2168 281.4070 0001521 107.6483 252.4675 15.08838322116897,6917.886,95.438,540.803,538.698,0.0
49425.0,STARLINK-3139,PAYLOAD,2023-12-18 02:37:07,15.08856406,0.0001332,53.2173,276.9469,97.941,262.1733,0.00034984,5.287e-05,0.0,0 STARLINK-3139,1 49425U 21104T   23352.10911383  .00005287  00000-0  34984-3 0  9996,2 49425  53.2173 276.9469 0001332  97.9410 262.1733 15.08856406117049,6917.83,95.437,540.617,538.774,0.0
49425.0,STARLINK-3139,PAYLOAD,2023-12-19 02:27:56,15.08834538,0.0001272,53.2166,272.486,103.987,256.1263,-5.1323e-05,-1.104e-05,0.0,0 STARLINK-3139,1 49425U 21104T   23353.10273385 -.00001104  00000-0 -51323-4 0  9993,2 49425  53.2166 272.4860 0001272 103.9870 256.1263 15.08834538117197,6917.897,95.438,540.642,538.882,0.0
49425.0,STARLINK-3139,PAYLOAD,2023-12-20 02:18:42,15.08853076,0.0001718,53.2171,268.0236,67.418,292.6993,0.00032457,4.883e-05,0.0,0 STARLINK-3139,1 49425U 21104T   23354.09632977  .00004883  00000-0  32457-3 0  9999,2 49425  53.2171 268.0236 0001718  67.4180 292.6993 15.08853076117344,6917.84,95.437,540.894,538.517,0.0
49425.0,STARLINK-3139,PAYLOAD,2023-12-21 00:34:06,15.0885306,0.0002039,53.2169,263.8647,63.7575,296.3626,0.00035093,5.303e-05,0.0,0 STARLINK-3139,1 49425U 21104T   23355.02369036  .00005303  00000-0  35093-3 0  9993,2 49425  53.2169 263.8647 0002039  63.7575 296.3626 15.08853060117486,6917.84,95.437,541.116,538.295,0.0
49425.0,STARLINK-3139,PAYLOAD,2023-12-21 22:49:30,15.08838393,0.000162,53.217,259.7,96.2476,263.87,-8.7435e-05,-1.679e-05,0.0,0 STARLINK-3139,1 49425U 21104T   23355.95105278 -.00001679  00000-0 -87435-4 0  9993,2 49425  53.2170 259.7000 0001620  96.2476 263.8700 15.08838393116541,6917.885,95.438,540.871,538.63,0.0
49425.0,STARLINK-3139,PAYLOAD,2023-12-22 00:24:54,15.08838979,0.0001611,53.2168,259.4037,92.467,267.6507,-7.1749e-05,-1.43e-05,0.0,0 STARLINK-3139,1 49425U 21104T   23356.01729406 -.00001430  00000-0 -71749-4 0  9992,2 49425  53.2168 259.4037 0001611  92.4670 267.6507 15.08838979117637,6917.884,95.438,540.863,538.634,0.0
49425.0,STARLINK-3139,PAYLOAD,2023-12-22 22:40:17,15.08846517,0.0001408,53.2157,255.2371,97.4562,262.6591,2.8658e-05,1.68e-06,0.0,0 STARLINK-3139,1 49425U 21104T   23356.94465059  .00000168  00000-0  28658-4 0  9991,2 49425  53.2157 255.2371 0001408  97.4562 262.6591 15.08846517116699,6917.86,95.437,540.7,538.751,0.0
49425.0,STARLINK-3139,PAYLOAD,2023-12-23 00:15:40,15.08853939,0.0001542,53.2163,254.9402,109.406,250.7099,0.00017046,2.427e-05,0.0,0 STARLINK-3139,1 49425U 21104T   23357.01088498  .00002427  00000-0  17046-3 0  9996,2 49425  53.2163 254.9402 0001542 109.4060 250.7099 15.08853939117781,6917.838,95.437,540.77,538.636,0.0
49425.0,STARLINK-3139,PAYLOAD,2023-12-23 22:31:05,15.08840223,0.0001547,53.2167,250.7742,106.9845,253.1317,0.00013433,1.851e-05,0.0,0 STARLINK-3139,1 49425U 21104T   23357.93825504  .00001851  00000-0  13433-3 0  9990,2 49425  53.2167 250.7742 0001547 106.9845 253.1317 15.08840223116842,6917.88,95.438,540.815,538.675,0.0
49425.0,STARLINK-3139,PAYLOAD,2023-12-24 00:06:28,15.08840681,0.0001378,53.2163,250.4808,85.4342,274.6807,0.00015503,2.18e-05,0.0,0 STARLINK-3139,1 49425U 21104T   23358.00449640  .00002180  00000-0  15503-3 0  9998,2 49425  53.2163 250.4808 0001378  85.4342 274.6807 15.08840681117934,6917.878,95.438,540.697,538.79,0.0
49425.0,STARLINK-3139,PAYLOAD,2023-12-24 22:21:52,15.08845018,0.0001561,53.216,246.3218,108.353,251.7632,2.732e-05,1.47e-06,0.0,0 STARLINK-3139,1 49425U 21104T   23358.93185375  .00000147  00000-0  27320-4 0  9994,2 49425  53.2160 246.3218 0001561 108.3530 251.7632 15.08845018116994,6917.865,95.437,540.81,538.65,0.0
49425.0,STARLINK-3139,PAYLOAD,2023-12-25 01:32:38,15.08851746,0.0001539,53.2165,245.7256,107.0585,253.0576,0.00013523,1.866e-05,0.0,0 STARLINK-3139,1 49425U 21104T   23359.06432875  .00001866  00000-0  13523-3 0  9997,2 49425  53.2165 245.7256 0001539 107.0585 253.0576 15.08851746118095,6917.844,95.437,540.774,538.645,0.0
49425.0,STARLINK-3139,PAYLOAD,2023-12-25 22:12:39,15.08837277,0.0001469,53.2157,241.8613,101.3646,258.7511,5.5989e-05,6.03e-06,0.0,0 STARLINK-3139,1 49425U 21104T   23359.92545909  .00000603  00000-0  55989-4 0  9996,2 49425  53.2157 241.8613 0001469 101.3646 258.7511 15.08837277117146,6917.889,95.438,540.77,538.737,0.0
49425.0,STARLINK-3139,PAYLOAD,2023-12-26 01:23:25,15.08840447,0.0001443,53.2156,241.2629,89.9226,270.1932,0.00011405,1.528e-05,0.0,0 STARLINK-3139,1 49425U 21104T   23360.05793816  .00001528  00000-0  11405-3 0  9995,2 49425  53.2156 241.2629 0001443  89.9226 270.1932 15.08840447118243,6917.879,95.438,540.742,538.746,0.0
49425.0,STARLINK-3139,PAYLOAD,2023-12-26 22:03:26,15.08845656,0.0001446,53.2149,237.3952,102.0105,258.105,9.4441e-05,1.216e-05,0.0,0 STARLINK-3139,1 49425U 21104T   23360.91905642  .00001216  00000-0  94441-4 0  9998,2 49425  53.2149 237.3952 0001446 102.0105 258.1050 15.08845656117294,6917.863,95.437,540.728,538.728,0.0
49425.0,STARLINK-3139,PAYLOAD,2023-12-27 01:14:12,15.08848622,0.0001439,53.2151,236.7992,96.0461,264.0695,0.00023838,3.509e-05,0.0,0 STARLINK-3139,1 49425U 21104T   23361.05153546  .00003509  00000-0  23838-3 0  9990,2 49425  53.2151 236.7992 0001439  96.0461 264.0695 15.08848622117313,6917.854,95.437,540.715,538.724,0.0
49425.0,STARLINK-3139,PAYLOAD,2023-12-27 21:54:13,15.08841321,0.000159,53.2171,232.9244,83.9535,276.1638,0.00011715,1.577e-05,0.0,0 STARLINK-3139,1 49425U 21104T   23361.91266133  .00001577  00000-0  11715-3 0  9996,2 49425  53.2171 232.9244 0001590  83.9535 276.1638 15.08841321117442,6917.876,95.437,540.841,538.641,0.0
49425.0,STARLINK-3139,PAYLOAD,2023-12-28 01:05:00,15.08839767,0.0001565,53.2165,232.3324,88.1312,271.9859,0.0001122,1.498e-05,0.0,0 STARLINK-3139,1 49425U 21104T   23362.04514177  .00001498  00000-0  11220-3 0  9998,2 49425  53.2165 232.3324 0001565  88.1312 271.9859 15.08839767118541,6917.881,95.438,540.829,538.663,0.0
49425.0,STARLINK-3139,PAYLOAD,2023-12-28 18:34:13,15.08858908,0.0001391,53.215,229.0698,89.428,270.6871,0.00025138,3.717e-05,0.0,0 STARLINK-3139,1 49425U 21104T   23362.77376897  .00003717  00000-0  25138-3 0  9992,2 49425  53.2150 229.0698 0001391  89.4280 270.6871 15.08858908118657,6917.823,95.436,540.65,538.725,0.0
49425.0,STARLINK-3139,PAYLOAD,2023-12-28 20:09:35,15.08875908,0.0002092,53.2164,228.7713,111.9497,248.1718,0.00044322,6.78e-05,0.0,0 STARLINK-3139,1 49425U 21104T   23362.83999836  .00006780  00000-0  44322-3 0  9992,2 49425  53.2164 228.7713 0002092 111.9497 248.1718 15.08875908117586,6917.771,95.435,541.083,538.188,0.0
49425.0,STARLINK-3139,PAYLOAD,2023-12-29 20:00:24,15.08841556,0.0001477,53.2149,224.3094,109.0943,251.0209,1.8567e-05,8e-08,0.0,0 STARLINK-3139,1 49425U 21104T   23363.83361365  .00000008  00000-0  18567-4 0  9993,2 49425  53.2149 224.3094 0001477 109.0943 251.0209 15.08841556118810,6917.876,95.437,540.762,538.719,0.0
49425.0,STARLINK-3139,PAYLOAD,2023-12-29 21:35:47,15.08828337,0.0001364,53.2146,224.0166,84.9287,275.1861,-0.00021553,-3.715e-05,0.0,0 STARLINK-3139,1 49425U 21104T   23363.89985961 -.00003715  00000-0 -21553-3 0  9991,2 49425  53.2146 224.0166 0001364  84.9287 275.1861 15.08828337117745,6917.916,95.438,540.725,538.837,0.0
